NORAD_CAT_ID,OBJECT_NAME,OBJECT_TYPE,EPOCH,MEAN_MOTION,ECCENTRICITY,INCLINATION,RA_OF_ASC_NODE,ARG_OF_PERICENTER,MEAN_ANOMALY,BSTAR,MEAN_MOTION_DOT,MEAN_MOTION_DDOT,TLE_LINE0,TLE_LINE1,TLE_LINE2,SEMIMAJOR_AXIS,PERIOD,APOGEE,PERIGEE,DECAYED
54773.0,STARLINK-5453,PAYLOAD,2023-01-06 22:00:00,15.61443795,0.0001518,53.2173,206.8518,44.4793,167.2663,-0.015162,-0.01187771,0.0,0 STARLINK-5453,1 54773U 22175R   23006.91667824 -.01187771  00000-0 -15162-1 0  9997,2 54773  53.2173 206.8518 0001518  44.4793 167.2663 15.61443795  1305,6761.623000000001,92.222,384.514,382.461,0.0
54773.0,STARLINK-5453,PAYLOAD,2023-01-07 06:00:00,15.60590915,0.0001477,53.2171,205.2306,38.3008,247.7223,-0.0157789999999999,-0.0119497999999999,0.0,0 STARLINK-5453,1 54773U 22175R   23007.25001157 -.01194980  00000-0 -15779-1 0  9990,2 54773  53.2171 205.2306 0001477  38.3008 247.7223 15.60590915  2950,6764.085999999998,92.273,386.95,384.952,0.0
54773.0,STARLINK-5453,PAYLOAD,2023-01-07 22:00:00,15.58876894,0.0001494,53.2171,201.9985,44.7012,26.7868,-0.01684,-0.01194052,0.0,0 STARLINK-5453,1 54773U 22175R   23007.91667824 -.01194052  00000-0 -16840-1 0  9992,2 54773  53.2171 201.9985 0001494  44.7012  26.7868 15.58876894  3053,6769.0430000000015,92.374,391.92,389.897,0.0
54773.0,STARLINK-5453,PAYLOAD,2023-01-08 00:00:00,15.586535199999998,0.0001513,53.2172,201.5946,49.9627,129.4227,-0.016761,-0.01179919,0.0,0 STARLINK-5453,1 54773U 22175R   23008.00001157 -.01179919  00000-0 -16761-1 0  9991,2 54773  53.2172 201.5946 0001513  49.9627 129.4227 15.58653520  1303,6769.69,92.387,392.579,390.531,0.0
54773.0,STARLINK-5453,PAYLOAD,2023-01-08 14:00:01,15.5715922,0.0001654,53.2169,198.7712,41.1452,171.6913,-0.017871,-0.01187934,0.0,0 STARLINK-5453,1 54773U 22175R   23008.58334491 -.01187934  00000-0 -17871-1 0  9993,2 54773  53.2169 198.7712 0001654  41.1452 171.6913 15.57159220  1301,6774.02,92.476,397.006,394.765,0.0
54773.0,STARLINK-5453,PAYLOAD,2023-01-08 22:00:00,15.56314779,0.0001491,53.217,197.1639,49.8642,232.0933,-0.018754,-0.01205627,0.0,0 STARLINK-5453,1 54773U 22175R   23008.91667824 -.01205627  00000-0 -18754-1 0  9990,2 54773  53.2170 197.1639 0001491  49.8642 232.0933 15.56314779  3216,6776.47,92.526,399.346,397.325,0.0
54773.0,STARLINK-5453,PAYLOAD,2023-01-09 14:00:01,15.54473748,0.0003707,53.2174,193.9489,287.5754,129.6081,-0.016875,-0.01030563,0.0,0 STARLINK-5453,1 54773U 22175R   23009.58334491 -.01030563  00000-0 -16875-1 0  9992,2 54773  53.2174 193.9489 0003707 287.5754 129.6081 15.54473748  1307,6781.82,92.636,406.199,401.171,0.0
54773.0,STARLINK-5453,PAYLOAD,2023-01-09 18:00:00,15.54169007,0.0004921,53.2174,193.1479,276.1064,354.1679,-0.02026,-0.01204493,0.0,0 STARLINK-5453,1 54773U 22175R   23009.75001157 -.01204493  00000-0 -20260-1 0  9999,2 54773  53.2174 193.1479 0004921 276.1064 354.1679 15.54169007  3349,6782.706,92.654,407.909,401.234,0.0
54773.0,STARLINK-5453,PAYLOAD,2023-01-09 22:00:00,15.53719932,0.0006115,53.2176,192.347,274.3565,208.8153,-0.019961,-0.01171586,0.0,0 STARLINK-5453,1 54773U 22175R   23009.91667824 -.01171586  00000-0 -19961-1 0  9998,2 54773  53.2176 192.3470 0006115 274.3565 208.8153 15.53719932  1309,6784.013000000001,92.681,410.027,401.73,0.0
54773.0,STARLINK-5453,PAYLOAD,2023-01-10 10:00:00,15.52442522,0.0001822,53.2175,189.9438,27.3883,12.9075,-0.021202,-0.01202258,0.0,0 STARLINK-5453,1 54773U 22175R   23010.41667824 -.01202258  00000-0 -21202-1 0  9997,2 54773  53.2175 189.9438 0001822  27.3883  12.9075 15.52442522  3444,6787.734,92.757,410.836,408.362,0.0
54773.0,STARLINK-5453,PAYLOAD,2023-01-10 14:00:01,15.52030509,0.0001551,53.2167,189.1452,22.6912,229.4561,-0.021946,-0.01223811,0.0,0 STARLINK-5453,1 54773U 22175R   23010.58334491 -.01223811  00000-0 -21946-1 0  9999,2 54773  53.2167 189.1452 0001551  22.6912 229.4561 15.52030509  1309,6788.935,92.782,411.853,409.747,0.0
54773.0,STARLINK-5453,PAYLOAD,2023-01-10 22:00:00,15.51138584,0.0001551999999999,53.213,187.5541,84.8409,230.301,-0.021521,-0.0115014,0.0,0 STARLINK-5453,1 54773U 22175R   23010.91667824 -.01150140  00000-0 -21521-1 0  9998,2 54773  53.2130 187.5541 0001552  84.8409 230.3010 15.51138584  1303,6791.538000000001,92.835,414.457,412.349,0.0
54773.0,STARLINK-5453,PAYLOAD,2023-01-11 08:00:01,15.49879061,8.87e-05,53.2134,185.5584,100.2579,22.1474,-0.0001988,-0.00011714,0.0,0 STARLINK-5453,1 54773U 22175R   23011.33334491 -.00011714  00000-0 -19880-3 0  9995,2 54773  53.2134 185.5584 0000887 100.2579  22.1474 15.49879061  3585,6795.217,92.91,417.684,416.479,0.0
54773.0,STARLINK-5453,PAYLOAD,2023-01-11 14:00:01,15.4988574,9.6e-05,53.2139,184.3641,97.0308,341.0445,-3.6737e-05,-2.535e-05,0.0,0 STARLINK-5453,1 54773U 22175R   23011.58334491 -.00002535  00000-0 -36737-4 0  9994,2 54773  53.2139 184.3641 0000960  97.0308 341.0445 15.49885740  1306,6795.196999999999,92.91,417.714,416.41,0.0
54773.0,STARLINK-5453,PAYLOAD,2023-01-11 22:00:00,15.49865719,9.12e-05,53.2143,182.7726,81.8757,57.1175,0.001093,0.00062033,0.0,0 STARLINK-5453,1 54773U 22175R   23011.91667824  .00062033  00000-0  10930-2 0  9992,2 54773  53.2143 182.7726 0000912  81.8757  57.1175 15.49865719  1302,6795.255999999999,92.911,417.74,416.501,0.0
54773.0,STARLINK-5453,PAYLOAD,2023-01-12 22:00:00,15.49879019,0.0001236,53.2148,177.9934,85.4576,236.2735,0.00070761,0.00039906,0.0,0 STARLINK-5453,1 54773U 22175R   23012.91667824  .00039906  00000-0  70761-3 0  9995,2 54773  53.2148 177.9934 0001236  85.4576 236.2735 15.49879019  3833,6795.217,92.91,417.922,416.242,0.0
54773.0,STARLINK-5453,PAYLOAD,2023-01-13 14:00:01,15.49912132,0.0001278,53.215,174.8059,95.7802,347.789,-0.00095275,-0.00054204,0.0,0 STARLINK-5453,1 54773U 22175R   23013.58334491 -.00054204  00000-0 -95275-3 0  9997,2 54773  53.2150 174.8059 0001278  95.7802 347.7890 15.49912132  1306,6795.12,92.908,417.853,416.116,0.0
54773.0,STARLINK-5453,PAYLOAD,2023-01-13 16:00:00,15.49902236,0.0001276,53.2152,174.408,89.9413,98.8629,-0.00088595,-0.00050441,0.0,0 STARLINK-5453,1 54773U 22175R   23013.66667824 -.00050441  00000-0 -88595-3 0  9991,2 54773  53.2152 174.4080 0001276  89.9413  98.8629 15.49902236  3949,6795.149,92.909,417.881,416.147,0.0
54773.0,STARLINK-5453,PAYLOAD,2023-01-13 22:00:00,15.4984508,0.0001267,53.2146,173.21400000000003,77.9549,66.5465,0.0011839,0.00067225,0.0,0 STARLINK-5453,1 54773U 22175R   23013.91667824  .00067225  00000-0  11839-2 0  9991,2 54773  53.2146 173.2140 0001267  77.9549  66.5465 15.49845080  1304,6795.316,92.913,418.042,416.32,0.0
54773.0,STARLINK-5453,PAYLOAD,2023-01-14 10:00:00,15.49899043,0.0001279,53.2145,170.8224,86.3356,329.5128,-5.4062e-05,-3.52e-05,0.0,0 STARLINK-5453,1 54773U 22175R   23014.41667824 -.00003520  00000-0 -54062-4 0  9994,2 54773  53.2145 170.8224 0001279  86.3356 329.5128 15.49899043  4064,6795.158,92.909,417.892,416.154,0.0
54773.0,STARLINK-5453,PAYLOAD,2023-01-15 14:00:01,15.49910393,0.0001249,53.2141,165.2478,73.5617,15.4969,-0.0008912,-0.0005075,0.0,0 STARLINK-5453,1 54773U 22175R   23015.58334491 -.00050750  00000-0 -89120-3 0  9993,2 54773  53.2141 165.2478 0001249  73.5617  15.4969 15.49910393  4240,6795.125,92.909,417.839,416.141,0.0
54773.0,STARLINK-5453,PAYLOAD,2023-01-15 22:00:01,15.49848524,0.0001188,53.2141,163.6554,64.9684,85.0931,0.0010149,0.00057499,0.0,0 STARLINK-5453,1 54773U 22175R   23015.91668981  .00057499  00000-0  10149-2 0  9993,2 54773  53.2141 163.6554 0001188  64.9684  85.0931 15.49848524  1309,6795.306,92.912,417.978,416.364,0.0
54773.0,STARLINK-5453,PAYLOAD,2023-01-16 08:00:01,15.4983666,0.0001088999999999,53.2143,161.6619,86.1519,229.9709,0.0015907,0.00090726,0.0,0 STARLINK-5453,1 54773U 22175R   23016.33334491  .00090726  00000-0  15907-2 0  9993,2 54773  53.2143 161.6619 0001089  86.1519 229.9709 15.49836660  4363,6795.34,92.913,417.945,416.465,0.0
54773.0,STARLINK-5453,PAYLOAD,2023-01-16 14:00:01,15.49892084,0.0001025,53.2144,160.4685,81.1101,190.6674,-5.929299999999999e-06,-7.88e-06,0.0,0 STARLINK-5453,1 54773U 22175R   23016.58334491 -.00000788  00000-0 -59293-5 0  9990,2 54773  53.2144 160.4685 0001025  81.1101 190.6674 15.49892084  1304,6795.178000000001,92.91,417.74,416.347,0.0
54773.0,STARLINK-5453,PAYLOAD,2023-01-16 20:00:01,15.50188383,9.34e-05,53.2145,159.2748,84.3105,143.1088,-0.018463,-0.00969827,0.0,0 STARLINK-5453,1 54773U 22175R   23016.83334491 -.00969827  00000-0 -18463-1 0  9996,2 54773  53.2145 159.2748 0000934  84.3105 143.1088 15.50188383  4439,6794.313,92.892,416.812,415.543,0.0
54773.0,STARLINK-5453,PAYLOAD,2023-01-17 14:00:01,15.48410148,0.0001199999999999,53.2172,155.6871,83.7513,9.2125,-0.024529,-0.01203761,0.0,0 STARLINK-5453,1 54773U 22175R   23017.58334491 -.01203761  00000-0 -24529-1 0  9998,2 54773  53.2172 155.6871 0001200  83.7513   9.2125 15.48410148  1300,6799.513000000001,92.999,422.194,420.562,0.0
54773.0,STARLINK-5453,PAYLOAD,2023-01-17 16:00:00,15.48179762,0.0001304,53.2142,155.2954,74.487,123.2704,-0.024329,-0.0118602,0.0,0 STARLINK-5453,1 54773U 22175R   23017.66667824 -.01186020  00000-0 -24329-1 0  9992,2 54773  53.2142 155.2954 0001304  74.4870 123.2704 15.48179762  4568,6800.188,93.012,422.94,421.166,0.0
54773.0,STARLINK-5453,PAYLOAD,2023-01-17 22:00:00,15.47571313,0.0001142,53.2139,154.10399999999998,62.7512,88.852,-0.025807,-0.01227355,0.0,0 STARLINK-5453,1 54773U 22175R   23017.91667824 -.01227355  00000-0 -25807-1 0  9999,2 54773  53.2139 154.1040 0001142  62.7512  88.8520 15.47571313  1309,6801.97,93.049,424.612,423.0580000000001,0.0
54773.0,STARLINK-5453,PAYLOAD,2023-01-18 14:00:01,15.45833396,0.0001165,53.2139,150.9331,91.3952,174.362,-0.026891,-0.01205919,0.0,0 STARLINK-5453,1 54773U 22175R   23018.58334491 -.01205919  00000-0 -26891-1 0  9990,2 54773  53.2139 150.9331 0001165  91.3952 174.3620 15.45833396  1309,6807.066999999999,93.154,429.725,428.139,0.0
